[{"OBJECT_NAME":"STARLINK-3190","OBJECT_ID":"2021-115AU","EPOCH":"2026-03-09T10:56:56.337504","MEAN_MOTION":15.08838372,"ECCENTRICITY":0.00013901,"INCLINATION":53.2153,"RA_OF_ASC_NODE":140.1784,"ARG_OF_PERICENTER":86.6291,"MEAN_ANOMALY":273.486,"EPHEMERIS_TYPE":0,"CLASSIFICATION_TYPE":"U","NORAD_CAT_ID":49766,"ELEMENT_SET_NO":999,"REV_AT_EPOCH":23564,"BSTAR":-5.2807671e-5,"MEAN_MOTION_DOT":-1.128e-5,"MEAN_MOTION_DDOT":0},{"OBJECT_NAME":"DISKSAT C","OBJECT_ID":"2025-305A","EPOCH":"2026-03-09T19:16:32.318976","MEAN_MOTION":15.07852977,"ECCENTRICITY":0.00045341,"INCLINATION":45.0017,"RA_OF_ASC_NODE":250.1278,"ARG_OF_PERICENTER":310.7706,"MEAN_ANOMALY":49.2776,"EPHEMERIS_TYPE":0,"CLASSIFICATION_TYPE":"U","NORAD_CAT_ID":67219,"ELEMENT_SET_NO":999,"REV_AT_EPOCH":1231,"BSTAR":0.00075564202,"MEAN_MOTION_DOT":0.00011541,"MEAN_MOTION_DDOT":0}]
